0 SL-8 DEB
1 22132U 91009CR  13282.45163491  .00000247  00000-0  25439-2 0  8771
2 22132 074.0579 321.2288 0141742 099.4743 324.4872 12.16737865  3767
0 SL-8 DEB
1 22132U 91009CR  13286.06124493 -.00000015  00000-0 -17969-4 0  8788
2 22132 074.0571 316.7301 0141679 094.3202 295.5554 12.16741487  4207
0 SL-8 DEB
1 22132U 91009CR  13288.79332243 -.00000169  00000-0 -15206-2 0  8795
2 22132 074.0566 313.3247 0141677 090.4265 022.8118 12.16742412  4539
0 SL-8 DEB
1 22132U 91009CR  13291.51550606  .00000057  00000-0  68746-3 0  8808
2 22132 074.0566 309.9316 0141678 086.5460 066.7502 12.16739823  4863
0 SL-8 DEB
1 22132U 91009CR  13294.12524742  .00000210  00000-0  21846-2 0  8811
2 22132 074.0567 306.6786 0141698 082.8306 338.1356 12.16738987  5188
